{"type": "FeatureCollection", "features": [{"type": "Feature", "properties": {"norad_id": 24876, "name": "GPS BIIR-2  (PRN 13)", "group": "gps-ops", "lat": -47.17182364270134, "lon": -27.253066371386407, "alt_km": 20443.17290440292, "timestamp": "2025-12-13T13:34:35.304027+00:00", "meta": {"OBJECT_NAME": "GPS BIIR-2  (PRN 13)", "OBJECT_ID": "1997-035A", "EPOCH": "2025-12-12T17:35:03.459552", "MEAN_MOTION": 2.00563636, "ECCENTRICITY": 0.00967745, "INCLINATION": 55.8952, "RA_OF_ASC_NODE": 105.8691, "ARG_OF_PERICENTER": 56.9985, "MEAN_ANOMALY": 303.9066, "EPHEMERIS_TYPE": 0, "CLASSIFICATION_TYPE": "U", "NORAD_CAT_ID": 24876, "ELEMENT_SET_NO": 999, "REV_AT_EPOCH": 20821, "BSTAR": 0, "MEAN_MOTION_DOT": 1e-07, "MEAN_MOTION_DDOT": 0}, "tle": {"line1": "1 24876U 97035A   25346.73267893  .00000010  00000+0  00000+0 0  9995", "line2": "2 24876  55.8952 105.8691 0096774  56.9985 303.9066  2.00563636208219"}}, "geometry": {"type": "Point", "coordinates": [-27.253066371386407, -47.17182364270134]}}, {"type": "Feature", "properties": {"norad_id": 26360, "name": "GPS BIIR-4  (PRN 20)", "group": "gps-ops", "lat": -20.47990074199708, "lon": 11.685108305072553, "alt_km": 20189.20350898524, "timestamp": "2025-12-13T13:34:35.304059+00:00", "meta": {"OBJECT_NAME": "GPS BIIR-4  (PRN 20)", "OBJECT_ID": "2000-025A", "EPOCH": "2025-12-12T23:03:31.926816", "MEAN_MOTION": 2.00567719, "ECCENTRICITY": 0.00388762, "INCLINATION": 55.0453, "RA_OF_ASC_NODE": 26.8288, "ARG_OF_PERICENTER": 242.0202, "MEAN_ANOMALY": 15.536, "EPHEMERIS_TYPE": 0, "CLASSIFICATION_TYPE": "U", "NORAD_CAT_ID": 26360, "ELEMENT_SET_NO": 999, "REV_AT_EPOCH": 18753, "BSTAR": 0, "MEAN_MOTION_DOT": -9.9e-07, "MEAN_MOTION_DDOT": 0}, "tle": {"line1": "1 26360U 00025A   25346.96078619 -.00000099  00000+0  00000+0 0  9997", "line2": "2 26360  55.0453  26.8288 0038876 242.0202  15.5360  2.00567719187530"}}, "geometry": {"type": "Point", "coordinates": [11.685108305072553, -20.47990074199708]}}, {"type": "Feature", "properties": {"norad_id": 26407, "name": "GPS BIIR-5  (PRN 22)", "group": "gps-ops", "lat": 5.890982563214592, "lon": 38.383757938763026, "alt_km": 20389.60722800399, "timestamp": "2025-12-13T13:34:35.304073+00:00", "meta": {"OBJECT_NAME": "GPS BIIR-5  (PRN 22)", "OBJECT_ID": "2000-040A", "EPOCH": "2025-12-12T20:03:42.164352", "MEAN_MOTION": 2.00567983, "ECCENTRICITY": 0.01260095, "INCLINATION": 54.8908, "RA_OF_ASC_NODE": 222.5651, "ARG_OF_PERICENTER": 301.8136, "MEAN_ANOMALY": 65.1771, "EPHEMERIS_TYPE": 0, "CLASSIFICATION_TYPE": "U", "NORAD_CAT_ID": 26407, "ELEMENT_SET_NO": 999, "REV_AT_EPOCH": 18621, "BSTAR": 0, "MEAN_MOTION_DOT": 1.5e-07, "MEAN_MOTION_DDOT": 0}, "tle": {"line1": "1 26407U 00040A   25346.83590468  .00000015  00000+0  00000+0 0  9990", "line2": "2 26407  54.8908 222.5651 0126009 301.8136  65.1771  2.00567983186213"}}, "geometry": {"type": "Point", "coordinates": [38.383757938763026, 5.890982563214592]}}, {"type": "Feature", "properties": {"norad_id": 27663, "name": "GPS BIIR-8  (PRN 16)", "group": "gps-ops", "lat": -40.080476632676806, "lon": -173.8625142627267, "alt_km": 20273.376025308728, "timestamp": "2025-12-13T13:34:35.304084+00:00", "meta": {"OBJECT_NAME": "GPS BIIR-8  (PRN 16)", "OBJECT_ID": "2003-005A", "EPOCH": "2025-12-12T09:13:58.066176", "MEAN_MOTION": 2.00570939, "ECCENTRICITY": 0.01474491, "INCLINATION": 54.9234, "RA_OF_ASC_NODE": 222.3924, "ARG_OF_PERICENTER": 51.7949, "MEAN_ANOMALY": 125.2746, "EPHEMERIS_TYPE": 0, "CLASSIFICATION_TYPE": "U", "NORAD_CAT_ID": 27663, "ELEMENT_SET_NO": 999, "REV_AT_EPOCH": 16756, "BSTAR": 0, "MEAN_MOTION_DOT": 1.1e-07, "MEAN_MOTION_DDOT": 0}, "tle": {"line1": "1 27663U 03005A   25346.38469984  .00000011  00000+0  00000+0 0  9993", "line2": "2 27663  54.9234 222.3924 0147449  51.7949 125.2746  2.00570939167568"}}, "geometry": {"type": "Point", "coordinates": [-173.8625142627267, -40.080476632676806]}}, {"type": "Feature", "properties": {"norad_id": 28190, "name": "GPS BIIR-11 (PRN 19)", "group": "gps-ops", "lat": 51.376288562297404, "lon": 41.95548128361464, "alt_km": 20030.641571118922, "timestamp": "2025-12-13T13:34:35.304096+00:00", "meta": {"OBJECT_NAME": "GPS BIIR-11 (PRN 19)", "OBJECT_ID": "2004-009A", "EPOCH": "2025-12-11T22:20:18.324960", "MEAN_MOTION": 2.00560799, "ECCENTRICITY": 0.0108335, "INCLINATION": 54.9863, "RA_OF_ASC_NODE": 283.2515, "ARG_OF_PERICENTER": 167.6362, "MEAN_ANOMALY": 200.4215, "EPHEMERIS_TYPE": 0, "CLASSIFICATION_TYPE": "U", "NORAD_CAT_ID": 28190, "ELEMENT_SET_NO": 999, "REV_AT_EPOCH": 15919, "BSTAR": 0, "MEAN_MOTION_DOT": -7.6e-07, "MEAN_MOTION_DDOT": 0}, "tle": {"line1": "1 28190U 04009A   25345.93076765 -.00000076  00000+0  00000+0 0  9997", "line2": "2 28190  54.9863 283.2515 0108335 167.6362 200.4215  2.00560799159191"}}, "geometry": {"type": "Point", "coordinates": [41.95548128361464, 51.376288562297404]}}, {"type": "Feature", "properties": {"norad_id": 28474, "name": "GPS BIIR-13 (PRN 02)", "group": "gps-ops", "lat": 10.25341979723782, "lon": 145.14907818372922, "alt_km": 20533.878213026586, "timestamp": "2025-12-13T13:34:35.304108+00:00", "meta": {"OBJECT_NAME": "GPS BIIR-13 (PRN 02)", "OBJECT_ID": "2004-045A", "EPOCH": "2025-12-12T12:01:27.782400", "MEAN_MOTION": 2.00569519, "ECCENTRICITY": 0.0170757, "INCLINATION": 55.2408, "RA_OF_ASC_NODE": 332.4152, "ARG_OF_PERICENTER": 309.2412, "MEAN_ANOMALY": 170.6572, "EPHEMERIS_TYPE": 0, "CLASSIFICATION_TYPE": "U", "NORAD_CAT_ID": 28474, "ELEMENT_SET_NO": 999, "REV_AT_EPOCH": 15468, "BSTAR": 0, "MEAN_MOTION_DOT": -8.8e-07, "MEAN_MOTION_DDOT": 0}, "tle": {"line1": "1 28474U 04045A   25346.50101600 -.00000088  00000+0  00000+0 0  9996", "line2": "2 28474  55.2408 332.4152 0170757 309.2412 170.6572  2.00569519154688"}}, "geometry": {"type": "Point", "coordinates": [145.14907818372922, 10.25341979723782]}}, {"type": "Feature", "properties": {"norad_id": 28874, "name": "GPS BIIRM-1 (PRN 17)", "group": "gps-ops", "lat": 40.72045942285936, "lon": 63.66262433592557, "alt_km": 20515.755926340764, "timestamp": "2025-12-13T13:34:35.304118+00:00", "meta": {"OBJECT_NAME": "GPS BIIRM-1 (PRN 17)", "OBJECT_ID": "2005-038A", "EPOCH": "2025-12-10T14:00:21.521088", "MEAN_MOTION": 2.00578486, "ECCENTRICITY": 0.0131701, "INCLINATION": 55.0338, "RA_OF_ASC_NODE": 280.7877, "ARG_OF_PERICENTER": 293.4518, "MEAN_ANOMALY": 200.7371, "EPHEMERIS_TYPE": 0, "CLASSIFICATION_TYPE": "U", "NORAD_CAT_ID": 28874, "ELEMENT_SET_NO": 999, "REV_AT_EPOCH": 14805, "BSTAR": 0, "MEAN_MOTION_DOT": -6.4e-07, "MEAN_MOTION_DDOT": 0}, "tle": {"line1": "1 28874U 05038A   25344.58358242 -.00000064  00000+0  00000+0 0  9999", "line2": "2 28874  55.0338 280.7877 0131701 293.4518 200.7371  2.00578486148057"}}, "geometry": {"type": "Point", "coordinates": [63.66262433592557, 40.72045942285936]}}, {"type": "Feature", "properties": {"norad_id": 29486, "name": "GPS BIIRM-2 (PRN 31)", "group": "gps-ops", "lat": 24.208274745279432, "lon": 177.28637225930103, "alt_km": 19914.986356436646, "timestamp": "2025-12-13T13:34:35.304129+00:00", "meta": {"OBJECT_NAME": "GPS BIIRM-2 (PRN 31)", "OBJECT_ID": "2006-042A", "EPOCH": "2025-12-12T12:13:56.756352", "MEAN_MOTION": 2.00554178, "ECCENTRICITY": 0.01073525, "INCLINATION": 54.6941, "RA_OF_ASC_NODE": 158.7498, "ARG_OF_PERICENTER": 51.9566, "MEAN_ANOMALY": 296.2293, "EPHEMERIS_TYPE": 0, "CLASSIFICATION_TYPE": "U", "NORAD_CAT_ID": 29486, "ELEMENT_SET_NO": 999, "REV_AT_EPOCH": 14064, "BSTAR": 0, "MEAN_MOTION_DOT": 9.7e-07, "MEAN_MOTION_DDOT": 0}, "tle": {"line1": "1 29486U 06042A   25346.50968468  .00000097  00000+0  00000+0 0  9991", "line2": "2 29486  54.6941 158.7498 0107352  51.9566 296.2293  2.00554178140642"}}, "geometry": {"type": "Point", "coordinates": [177.28637225930103, 24.208274745279432]}}, {"type": "Feature", "properties": {"norad_id": 29601, "name": "GPS BIIRM-3 (PRN 12)", "group": "gps-ops", "lat": 54.93857418078199, "lon": -51.551471323052155, "alt_km": 19942.10991248025, "timestamp": "2025-12-13T13:34:35.304140+00:00", "meta": {"OBJECT_NAME": "GPS BIIRM-3 (PRN 12)", "OBJECT_ID": "2006-052A", "EPOCH": "2025-12-11T22:46:47.068032", "MEAN_MOTION": 2.00573524, "ECCENTRICITY": 0.00877389, "INCLINATION": 54.9707, "RA_OF_ASC_NODE": 221.4296, "ARG_OF_PERICENTER": 87.4221, "MEAN_ANOMALY": 273.6564, "EPHEMERIS_TYPE": 0, "CLASSIFICATION_TYPE": "U", "NORAD_CAT_ID": 29601, "ELEMENT_SET_NO": 999, "REV_AT_EPOCH": 13965, "BSTAR": 0, "MEAN_MOTION_DOT": 9e-08, "MEAN_MOTION_DDOT": 0}, "tle": {"line1": "1 29601U 06052A   25345.94915588  .00000009  00000+0  00000+0 0  9996", "line2": "2 29601  54.9707 221.4296 0087738  87.4221 273.6564  2.00573524139650"}}, "geometry": {"type": "Point", "coordinates": [-51.551471323052155, 54.93857418078199]}}, {"type": "Feature", "properties": {"norad_id": 32260, "name": "GPS BIIRM-4 (PRN 15)", "group": "gps-ops", "lat": -37.92343929580997, "lon": -57.759099802426846, "alt_km": 20537.367406924546, "timestamp": "2025-12-13T13:34:35.304150+00:00", "meta": {"OBJECT_NAME": "GPS BIIRM-4 (PRN 15)", "OBJECT_ID": "2007-047A", "EPOCH": "2025-12-12T18:05:03.208704", "MEAN_MOTION": 2.00564516, "ECCENTRICITY": 0.01641407, "INCLINATION": 53.9552, "RA_OF_ASC_NODE": 87.7578, "ARG_OF_PERICENTER": 85.2452, "MEAN_ANOMALY": 276.6204, "EPHEMERIS_TYPE": 0, "CLASSIFICATION_TYPE": "U", "NORAD_CAT_ID": 32260, "ELEMENT_SET_NO": 999, "REV_AT_EPOCH": 13307, "BSTAR": 0, "MEAN_MOTION_DOT": -3.5e-07, "MEAN_MOTION_DDOT": 0}, "tle": {"line1": "1 32260U 07047A   25346.75350936 -.00000035  00000+0  00000+0 0  9996", "line2": "2 32260  53.9552  87.7578 0164140  85.2452 276.6204  2.00564516133078"}}, "geometry": {"type": "Point", "coordinates": [-57.759099802426846, -37.92343929580997]}}]}